#dP2024  8 25  0  0  0.00000000      97 __u+U IGS20 FIT  IAC
## 2329      0.00000000   900.00000000 60547 0.0000000000000
+  118   C06C07C08C09C10C11C12C13C14C16C19C20C21C22C23C24C25
+        C26C27C28C29C30C32C33C34C35C36C37C38C39C40C41C42C43
+        C44C45E02E03E04E05E06E07E08E09E10E11E12E13E14E15E18
+        E19E21E24E25E26E27E29E30E31E33E34E36G02G03G04G05G06
+        G07G08G09G10G11G12G13G14G15G16G17G18G19G20G21G22G23
+        G24G25G26G27G28G29G30G31G32J02J03J04R02R03R04R05R07
+        R08R09R11R12R14R15R16R17R18R19R20R21R22R24R25R26  0
++         7  7  7  7  7  6  7  7  6  7  6  6  5  6  5  5  5
++         5  5  6  6  5  5  5  6  6  6  5  6  6  6  5  5  6
++         6  6  4  4  4  4  4  4  4  4  4  4  4  4  4  4  5
++         4  4  4  4  4  4  4  4  4  4  4  4  4  3  3  4  3
++         3  3  3  3  3  3  4  3  4  3  3  3  3  3  3  3  4
++         4  3  3  3  3  3  3  3  3 11 11 11  6  7  6  6  7
++         7  7  7  7  6  6  6  6  6  8  8  6  6  6  8  8  0
%c M  cc GPS ccc cccc cccc cccc cccc ccccc ccccc ccccc ccccc
%c cc cc ccc ccc cccc cccc cccc cccc ccccc ccccc ccccc ccccc
%f  1.2500000  1.025000000  0.00000000000  0.000000000000000
%f  0.0000000  0.000000000  0.00000000000  0.000000000000000
%i    0    0    0    0      0      0      0      0         0
%i    0    0    0    0      0      0      0      0         0
/* INFORMATION & ANALYSIS CENTER (IAC)            FINAL DATA
/* S/V CLOCKS ARE ALIGNED TO GNSS TIME                      
/* G:C1WC2W R:C1PC2P E:C1XC5X C:C2IC6I J:C1CC2S             
/* PCV:IGS20_2317 OL/AL:FES2004  NONE     YN ORB:CoN CLK:CoN
*  2024 08 25 19  0  0.00000000
PC06  -7089.855200  40071.898707 -10374.065622    716.088232
PC07  -7645.381982  26864.183059  31721.084829   -429.758717
PC08 -19820.280740  28535.562189 -24086.529707   -465.935822
PC09  -1495.669668  41774.394342     55.709080   -233.487332
PC10    770.851073  29118.627896  30972.387374   -144.479477
PC11     72.251201  24302.984032  13803.604470    730.406158
PC12 -12912.543115   9056.585252  23062.408153   -265.925882
PC13 -11757.082124  28805.423482 -28456.484630    436.594687
PC14  -5338.985011  15030.976399 -22892.194160   -121.836929
PC16  -8475.388421  38946.742892 -12850.867951   -755.400276
PC19  -5693.644897 -15659.977745  22392.277702   -929.071474
PC20  14003.547234 -12562.041730  20620.618218   -843.870513
PC21 -27180.051143   1458.126113  -6088.352540   -938.691363
PC22 -23419.022965  -9983.868868  11383.249134    103.331504
PC23  12204.585454  11004.942934  22564.006553   -821.300745
PC24 -17064.760895  22036.637369  -1656.772123    846.973048
PC25  -3078.083702  23533.982314  14685.109467    488.305781
PC26 -20450.782537   8226.058646 -17149.212180   -339.417898
PC27  17204.175640    579.661706 -21982.358170    359.826686
PC28  17753.120686  17162.208858 -13003.894535    278.183049
PC29  -7729.601562 -25978.095521  -6633.001856    326.643467
PC30   7530.254698 -17366.701216 -20515.888724   -178.519958
PC32  27225.421904  -1595.672584   5959.596829   -713.277915
PC33   5715.810174  15653.985305 -22395.124824   -969.813518
PC34  -6289.833151  18721.214002  19699.122748    506.936863
PC35 -18327.035141 -16916.788575  12533.270198    278.041189
PC36   3243.461751 -23301.623869 -14974.074764    168.769317
PC37  20606.084685  -7733.405584  17154.475111   -904.436295
PC38 -25758.414166  29784.502289 -15253.983100    175.450706
PC39 -10481.439136  35795.503004 -19353.744719     -9.655265
PC40 -11476.106180  20666.014797  34939.676057    -87.582148
PC41  22894.213312  10339.604413 -12129.211541   -919.383163
PC42 -15731.142609  11894.940209 -19698.029269   -467.738381
PC43   6984.558563  25950.395380   7486.896787     83.547010
PC44 -17394.962723    -47.725784  21810.612380    573.938989
PC45 -11746.684128 -11373.986742 -22610.501220   -121.981141
PE02   9346.835766 -18710.167239 -20939.925243    154.155555
PE03  -1906.940006 -20718.915381  21039.529577   -136.041325
PE04  19428.609619  21563.642435  -5821.170299    -16.984874
PE05  16284.323994  -7708.330281  23485.358243   4778.340091
PE06  24034.658090  16882.688543   3647.686005    -19.023519
PE07 -25097.115898 -10166.973672 -11939.955282   -138.512406
PE08 -18877.633917 -21793.801018   6657.238689   -324.965238
PE09  25067.886851  10314.442482  11908.373150   -565.753147
PE10  12471.548535  13983.744004 -22925.760275   -651.331621
PE11  15926.709183   2193.134496 -24865.270885   1915.779984
PE12   7668.730930  22368.607625 -17805.941357  -1182.081259
PE13 -15731.799285  -2836.994836  24913.690569    -24.161945
PE14  27418.279972   4915.657709 -16236.689651    186.686994
PE15  -7255.397007 -22832.316769  17386.065749   -123.113841
PE18 -16985.245996   4184.057858  16759.577951    473.257993
PE19    -44.129643  19806.802747 -21994.635993    515.797649
PE21 -25302.093772  13903.318602   6532.592906   -613.112272
PE24  26895.496422   -474.049719  12325.884811   -950.716420
PE25  25531.481107 -13671.308348  -6105.425524      8.377217
PE26 -14818.304022  18901.520428  17310.466741    552.078943
PE27 -26958.532401    707.975075 -12202.461846   -435.581888
PE29 -16076.026764   8158.885356 -23485.079361    -25.418933
PE30 -12675.685312 -12829.049840 -23477.168358   -648.902395
PE31  12694.802058  12748.361117  23517.245606    -33.707797
PE33  -5642.532553  29057.546326    693.430112     14.872708
PE34   5301.067926 -29111.236376   -238.452240   -130.541322
PE36  14870.771493 -18421.979083 -17765.535638   -274.155675
PG02 -13828.299333  12236.771918  19443.305356   -371.654884
PG03 -22547.540778  13084.686909  -4924.600335    513.762988
PG04 -14841.001116   6695.626051 -20997.811369    431.156627
PG05  24028.078043  -3272.288779 -11103.444620   -184.412006
PG06   5798.392751  22166.301951 -13278.521217     74.952253
PG07  -6013.978584  25180.129099  -4177.458114    -46.471428
PG08 -22201.941742  -2829.370726  14510.823035    329.084517
PG09  -3998.873460  15471.646714 -21296.018132    329.028716
PG10  -5074.082091 -13890.786297  22264.472331   -104.708730
PG11  13177.608658   9369.826232 -21055.689030   -726.469687
PG12  24459.210347 -10118.204774  -2136.602708   -533.120158
PG13  21549.466648  12342.635733   9524.529018    672.872061
PG14    748.082617  16134.343469  21097.297531    480.671545
PG15  22221.296031    -18.099826  14159.786214    196.716739
PG16 -22925.192427  -2651.005739 -13866.560442   -198.783081
PG17   9929.915816  20709.104923  13615.886664    645.330928
PG18   6294.148956 -25353.211794  -4076.149754   -648.948883
PG19  16715.467096  20264.932178   5079.440421    529.410803
PG20  18338.101463   3770.168766 -18714.062515    371.306999
PG21 -15098.438714   5340.548681  21427.702257    102.941307
PG22   8801.219873  13123.249940  21729.122198    -55.114443
PG23   8808.025654 -17351.887703  18000.006348    305.466430
PG24  14411.647284 -10335.226422  19212.951859   -486.654268
PG25  16785.166313 -16873.755979 -11853.862898    499.449628
PG26 -13907.822176  -9959.777485 -20550.936436     93.104339
PG27 -23093.542530 -12336.901461   5357.305521    -33.421119
PG28  -5692.026636 -23476.534129 -11050.427338   -386.495269
PG29   8338.709104 -12616.528718 -21873.140291   -581.942098
PG30   1233.419321  25780.446751   5787.988467   -333.470359
PG31 -11926.466342 -13790.820876 -19405.994162   -225.478663
PG32 -12681.743802 -20013.852138  12419.798855   -602.975598
PJ02 -31612.340944  24837.256218  17880.400094     -0.862125
PJ03 -28095.167949  25867.068098  23028.627661     -2.236434
PJ04 -28277.197269  20718.370671 -18464.232491     22.461519
PR02   5789.793546  -9447.717270  23009.681754    -24.312327
PR03 -12727.863128 -12501.113900  18300.580464    106.307589
PR04 -23648.867759  -8795.691633   3831.813338    251.611365
PR05 -22109.937844   -438.767923 -12731.135205    136.652886
PR07  13224.901145  12443.026243 -17854.271205     89.541143
PR08  23791.234995   8444.913220  -3458.016651     -6.387720
PR09 -13599.641182  19968.986516   8072.763761    205.435282
PR11  12104.342125   2880.728607  22284.756291     13.704689
PR12  19743.158976 -12845.668246   9808.064582     44.060037
PR14    637.010712 -14884.445476 -20694.161031     26.851769
PR15 -13281.641036  -1586.216743 -21693.194853     76.498508
PR16 -19620.055672  12858.221396  -9958.287312     28.573170
PR17  -7373.562508 -24213.150492   2948.732479    116.384555
PR18 -11543.160330 -14557.117788  17513.602663    158.808540
PR19 -10508.970089    414.766421  23238.032734   -288.936068
PR20  -2710.961249  20496.108668  14929.109694   -118.181154
PR21   6892.486387  24471.823896  -2307.350582   -128.979330
PR22  11616.334705  13670.998769 -18105.705490     61.878277
PR24   1766.279498 -20999.322224 -14335.742624    -69.312211
PR25   6629.669747  24430.970685  -3255.645773   -100.962400
PR26  23374.261332   8918.023783  -5015.949700     12.067896
EOF
